{
    "links": {
        "self": "http://www.neowsapp.com/rest/v1/neo/54016836?api_key=iIulBulltgU6a56xZRHN4H3l9WmuAYTsLGpBGhQ2"
    },
    "id": "54016836",
    "neo_reference_id": "54016836",
    "name": "(2020 HV8)",
    "designation": "2020 HV8",
    "nasa_jpl_url": "http://ssd.jpl.nasa.gov/sbdb.cgi?sstr=54016836",
    "absolute_magnitude_h": 27.858,
    "estimated_diameter": {
        "kilometers": {
            "estimated_diameter_min": 0.0071277913,
            "estimated_diameter_max": 0.0159382259
        },
        "meters": {
            "estimated_diameter_min": 7.1277913235,
            "estimated_diameter_max": 15.9382259287
        },
        "miles": {
            "estimated_diameter_min": 0.0044290028,
            "estimated_diameter_max": 0.0099035514
        },
        "feet": {
            "estimated_diameter_min": 23.3851428856,
            "estimated_diameter_max": 52.2907691558
        }
    },
    "is_potentially_hazardous_asteroid": false,
    "close_approach_data": [
        {
            "close_approach_date": "2015-11-18",
            "close_approach_date_full": "2015-Nov-18 06:38",
            "epoch_date_close_approach": 1447828680000,
            "relative_velocity": {
                "kilometers_per_second": "15.8281061219",
                "kilometers_per_hour": "56981.1820388645",
                "miles_per_hour": "35405.8905840933"
            },
            "miss_distance": {
                "astronomical": "0.2482743618",
                "lunar": "96.5787267402",
                "kilometers": "37141315.700889366",
                "miles": "23078543.4102546108"
            },
            "orbiting_body": "Earth"
        },
        {
            "close_approach_date": "2019-10-22",
            "close_approach_date_full": "2019-Oct-22 03:59",
            "epoch_date_close_approach": 1571716740000,
            "relative_velocity": {
                "kilometers_per_second": "10.0758716792",
                "kilometers_per_hour": "36273.1380450102",
                "miles_per_hour": "22538.7173591343"
            },
            "miss_distance": {
                "astronomical": "0.4261546405",
                "lunar": "165.7741551545",
                "kilometers": "63751826.509415735",
                "miles": "39613548.088317743"
            },
            "orbiting_body": "Earth"
        },
        {
            "close_approach_date": "2020-04-23",
            "close_approach_date_full": "2020-Apr-23 18:16",
            "epoch_date_close_approach": 1587665760000,
            "relative_velocity": {
                "kilometers_per_second": "11.7603350526",
                "kilometers_per_hour": "42337.2061894763",
                "miles_per_hour": "26306.6934792332"
            },
            "miss_distance": {
                "astronomical": "0.0073108532",
                "lunar": "2.8439218948",
                "kilometers": "1093688.066602684",
                "miles": "679586.2517536792"
            },
            "orbiting_body": "Moon"
        },
        {
            "close_approach_date": "2020-04-24",
            "close_approach_date_full": "2020-Apr-24 00:54",
            "epoch_date_close_approach": 1587689640000,
            "relative_velocity": {
                "kilometers_per_second": "11.8384656039",
                "kilometers_per_hour": "42618.4761741811",
                "miles_per_hour": "26481.4637094516"
            },
            "miss_distance": {
                "astronomical": "0.0053960947",
                "lunar": "2.0990808383",
                "kilometers": "807244.273438289",
                "miles": "501598.3320908282"
            },
            "orbiting_body": "Earth"
        }
    ],
    "orbital_data": {
        "orbit_id": "1",
        "orbit_determination_date": "2020-04-29 06:51:59",
        "first_observation_date": "2020-04-28",
        "last_observation_date": "2020-04-29",
        "data_arc_in_days": 1,
        "observations_used": 15,
        "orbit_uncertainty": "8",
        "minimum_orbit_intersection": ".00539818",
        "jupiter_tisserand_invariant": "5.105",
        "epoch_osculation": "2458968.5",
        "eccentricity": ".307046826187224",
        "semi_major_axis": "1.233774041874266",
        "inclination": "16.76214245978299",
        "ascending_node_longitude": "214.7080740925717",
        "orbital_period": "500.5550759936343",
        "perihelion_distance": ".8549476380845891",
        "perihelion_argument": "289.6054405446348",
        "aphelion_distance": "1.612600445663942",
        "perihelion_time": "2458908.496419449479",
        "mean_anomaly": "43.15466975398781",
        "mean_motion": ".7192015769401132",
        "equinox": "J2000",
        "orbit_class": {
            "orbit_class_type": "APO",
            "orbit_class_description": "Near-Earth asteroid orbits which cross the Earth’s orbit similar to that of 1862 Apollo",
            "orbit_class_range": "a (semi-major axis) > 1.0 AU; q (perihelion) < 1.017 AU"
        }
    },
    "is_sentry_object": false
}